{
  "type": "FeatureCollection",
  "features": [
    {
      "type": "Feature",
      "properties": {
        "norad_id": 59626,
        "name": "LEGION 2",
        "group": "resource",
        "lat": 51.88889992398242,
        "lon": 43.753969692853595,
        "alt_km": 511.721479574333,
        "timestamp": "2025-12-04T15:47:53.753987+00:00",
        "meta_object_name": "LEGION 2",
        "meta_object_id": "2024-081B",
        "meta_epoch": "2025-12-04T06:03:54.474912",
        "meta_mean_motion": 15.16359949,
        "meta_eccentricity": 0.00061714,
        "meta_inclination": 97.5232,
        "meta_ra_of_asc_node": 53.0512,
        "meta_arg_of_pericenter": 328.3826,
        "meta_mean_anomaly": 31.7036,
        "meta_ephemeris_type": 0,
        "meta_classification_type": "U",
        "meta_norad_cat_id": 59626,
        "meta_element_set_no": 999,
        "meta_rev_at_epoch": 8799,
        "meta_bstar": 0.00055922373,
        "meta_mean_motion_dot": 0.00010796,
        "meta_mean_motion_ddot": 0,
        "tle_line1": "1 59626U 24081B   25338.25271383  .00010796  00000+0  55922-3 0  9993",
        "tle_line2": "2 59626  97.5232  53.0512 0006171 328.3826  31.7036 15.16359949 87996"
      },
      "geometry": {
        "type": "Point",
        "coordinates": [
          43.753969692853595,
          51.88889992398242
        ]
      }
    },
    {
      "type": "Feature",
      "properties": {
        "norad_id": 60182,
        "name": "ALOS-4 (DAICHI-4)",
        "group": "resource",
        "lat": 61.951573421351284,
        "lon": 58.46765297898299,
        "alt_km": 624.1958701429285,
        "timestamp": "2025-12-04T15:47:53.753997+00:00",
        "meta_object_name": "ALOS-4 (DAICHI-4)",
        "meta_object_id": "2024-123A",
        "meta_epoch": "2025-11-30T09:15:12.370176",
        "meta_mean_motion": 14.79468497,
        "meta_eccentricity": 0.000127,
        "meta_inclination": 97.9232,
        "meta_ra_of_asc_node": 69.4089,
        "meta_arg_of_pericenter": 105.4124,
        "meta_mean_anomaly": 254.7228,
        "meta_ephemeris_type": 0,
        "meta_classification_type": "U",
        "meta_norad_cat_id": 60182,
        "meta_element_set_no": 999,
        "meta_rev_at_epoch": 7648,
        "meta_bstar": -8.429942e-06,
        "meta_mean_motion_dot": -1.14e-06,
        "meta_mean_motion_ddot": 0,
        "tle_line1": "1 60182U 24123A   25334.38555984 -.00000114  00000+0 -84299-5 0  9997",
        "tle_line2": "2 60182  97.9232  69.4089 0001270 105.4124 254.7228 14.79468497 76488"
      },
      "geometry": {
        "type": "Point",
        "coordinates": [
          58.46765297898299,
          61.951573421351284
        ]
      }
    },
    {
      "type": "Feature",
      "properties": {
        "norad_id": 60452,
        "name": "LEGION 3",
        "group": "resource",
        "lat": 31.751187260546462,
        "lon": 31.710585908491918,
        "alt_km": 516.6813460336916,
        "timestamp": "2025-12-04T15:47:53.754008+00:00",
        "meta_object_name": "LEGION 3",
        "meta_object_id": "2024-146A",
        "meta_epoch": "2025-12-04T06:05:43.907424",
        "meta_mean_motion": 15.15620799,
        "meta_eccentricity": 0.00138729,
        "meta_inclination": 45.0023,
        "meta_ra_of_asc_node": 355.6187,
        "meta_arg_of_pericenter": 150.6855,
        "meta_mean_anomaly": 209.4805,
        "meta_ephemeris_type": 0,
        "meta_classification_type": "U",
        "meta_norad_cat_id": 60452,
        "meta_element_set_no": 999,
        "meta_rev_at_epoch": 7244,
        "meta_bstar": 0.000610388,
        "meta_mean_motion_dot": 0.00011576,
        "meta_mean_motion_ddot": 0,
        "tle_line1": "1 60452U 24146A   25338.25398041  .00011576  00000+0  61039-3 0  9998",
        "tle_line2": "2 60452  45.0023 355.6187 0013872 150.6855 209.4805 15.15620799 72449"
      },
      "geometry": {
        "type": "Point",
        "coordinates": [
          31.710585908491918,
          31.751187260546462
        ]
      }
    },
    {
      "type": "Feature",
      "properties": {
        "norad_id": 60453,
        "name": "LEGION 4",
        "group": "resource",
        "lat": 29.072756882277012,
        "lon": 118.92905306770811,
        "alt_km": 519.2849206177634,
        "timestamp": "2025-12-04T15:47:53.754019+00:00",
        "meta_object_name": "LEGION 4",
        "meta_object_id": "2024-146B",
        "meta_epoch": "2025-12-04T06:07:00.539040",
        "meta_mean_motion": 15.15683365,
        "meta_eccentricity": 0.0009962,
        "meta_inclination": 45.0385,
        "meta_ra_of_asc_node": 87.3383,
        "meta_arg_of_pericenter": 266.8579,
        "meta_mean_anomaly": 93.116,
        "meta_ephemeris_type": 0,
        "meta_classification_type": "U",
        "meta_norad_cat_id": 60453,
        "meta_element_set_no": 999,
        "meta_rev_at_epoch": 7129,
        "meta_bstar": 0.00065710355,
        "meta_mean_motion_dot": 0.00012492,
        "meta_mean_motion_ddot": 0,
        "tle_line1": "1 60453U 24146B   25338.25486735  .00012492  00000+0  65710-3 0  9995",
        "tle_line2": "2 60453  45.0385  87.3383 0009962 266.8579  93.1160 15.15683365 71298"
      },
      "geometry": {
        "type": "Point",
        "coordinates": [
          118.92905306770811,
          29.072756882277012
        ]
      }
    },
    {
      "type": "Feature",
      "properties": {
        "norad_id": 60989,
        "name": "SENTINEL-2C",
        "group": "resource",
        "lat": 19.48871831764948,
        "lon": -125.68710270067689,
        "alt_km": 788.6653267862584,
        "timestamp": "2025-12-04T15:47:53.754029+00:00",
        "meta_object_name": "SENTINEL-2C",
        "meta_object_id": "2024-157A",
        "meta_epoch": "2025-12-04T04:58:56.341056",
        "meta_mean_motion": 14.30825138,
        "meta_eccentricity": 0.00011244,
        "meta_inclination": 98.5612,
        "meta_ra_of_asc_node": 50.8132,
        "meta_arg_of_pericenter": 101.6158,
        "meta_mean_anomaly": 258.5151,
        "meta_ephemeris_type": 0,
        "meta_classification_type": "U",
        "meta_norad_cat_id": 60989,
        "meta_element_set_no": 999,
        "meta_rev_at_epoch": 6510,
        "meta_bstar": 0.00014768724,
        "meta_mean_motion_dot": 3.44e-06,
        "meta_mean_motion_ddot": 0,
        "tle_line1": "1 60989U 24157A   25338.20759654  .00000344  00000+0  14769-3 0  9990",
        "tle_line2": "2 60989  98.5612  50.8132 0001124 101.6158 258.5151 14.30825138 65108"
      },
      "geometry": {
        "type": "Point",
        "coordinates": [
          -125.68710270067689,
          19.48871831764948
        ]
      }
    },
    {
      "type": "Feature",
      "properties": {
        "norad_id": 61735,
        "name": "IONOSFERA-M 1",
        "group": "resource",
        "lat": -57.190159160791914,
        "lon": -137.62593628323975,
        "alt_km": 823.2601106396805,
        "timestamp": "2025-12-04T15:47:53.754040+00:00",
        "meta_object_name": "IONOSFERA-M 1",
        "meta_object_id": "2024-199A",
        "meta_epoch": "2025-12-04T07:37:55.988832",
        "meta_mean_motion": 14.22711197,
        "meta_eccentricity": 0.00013358,
        "meta_inclination": 98.7408,
        "meta_ra_of_asc_node": 208.2305,
        "meta_arg_of_pericenter": 33.6102,
        "meta_mean_anomaly": 326.5161,
        "meta_ephemeris_type": 0,
        "meta_classification_type": "U",
        "meta_norad_cat_id": 61735,
        "meta_element_set_no": 999,
        "meta_rev_at_epoch": 9999,
        "meta_bstar": 9.3737489e-05,
        "meta_mean_motion_dot": 1.66e-06,
        "meta_mean_motion_ddot": 0,
        "tle_line1": "1 61735U 24199A   25338.31800913  .00000166  00000+0  93737-4 0  9998",
        "tle_line2": "2 61735  98.7408 208.2305 0001335  33.6102 326.5161 14.22711197 99992"
      },
      "geometry": {
        "type": "Point",
        "coordinates": [
          -137.62593628323975,
          -57.190159160791914
        ]
      }
    },
    {
      "type": "Feature",
      "properties": {
        "norad_id": 61736,
        "name": "IONOSFERA-M 2",
        "group": "resource",
        "lat": 54.54720964581411,
        "lon": 40.95839534589412,
        "alt_km": 809.9730446872891,
        "timestamp": "2025-12-04T15:47:53.754050+00:00",
        "meta_object_name": "IONOSFERA-M 2",
        "meta_object_id": "2024-199B",
        "meta_epoch": "2025-12-04T06:46:34.063680",
        "meta_mean_motion": 14.22713333,
        "meta_eccentricity": 0.00014134,
        "meta_inclination": 98.7407,
        "meta_ra_of_asc_node": 208.1077,
        "meta_arg_of_pericenter": 120.5011,
        "meta_mean_anomaly": 239.6307,
        "meta_ephemeris_type": 0,
        "meta_classification_type": "U",
        "meta_norad_cat_id": 61736,
        "meta_element_set_no": 999,
        "meta_rev_at_epoch": 10311,
        "meta_bstar": 9.8798327e-05,
        "meta_mean_motion_dot": 1.77e-06,
        "meta_mean_motion_ddot": 0,
        "tle_line1": "1 61736U 24199B   25338.28233870  .00000177  00000+0  98798-4 0  9991",
        "tle_line2": "2 61736  98.7407 208.1077 0001413 120.5011 239.6307 14.22713333103119"
      },
      "geometry": {
        "type": "Point",
        "coordinates": [
          40.95839534589412,
          54.54720964581411
        ]
      }
    }
  ]
}